#dP2024 10 17 18  0  0.00000000      96 __u+U IGS20 EXT  IAC
## 2336 410400.00000000   900.00000000 60600 0.7500000000000
+   52   G02G03G04G05G06G07G08G09G10G11G12G13G14G15G16G17G18
+        G19G20G21G22G23G24G25G26G27G28G29G31G32R01R02R03R04
+        R05R07R08R09R11R12R14R15R16R17R18R19R20R21R22R24R25
+        R26  0  0  0  0  0  0  0  0  0  0  0  0  0  0  0  0
+          0  0  0  0  0  0  0  0  0  0  0  0  0  0  0  0  0
++         7  6  6  6  7  7  6  7  7  8  7  7  6  8  6  8  5
++         7  6  7  6  7  6  6  7  7  7  7  6  6  8  8  8  7
++         7  8  9 11  9 10  7  6  8  7  7  7  8  7  7  8  7
++         8  0  0  0  0  0  0  0  0  0  0  0  0  0  0  0  0
++         0  0  0  0  0  0  0  0  0  0  0  0  0  0  0  0  0
%c M  cc GPS ccc cccc cccc cccc cccc ccccc ccccc ccccc ccccc
%c cc cc ccc ccc cccc cccc cccc cccc ccccc ccccc ccccc ccccc
%f  0.0000000  0.000000000  0.00000000000  0.000000000000000
%f  0.0000000  0.000000000  0.00000000000  0.000000000000000
%i    0    0    0    0      0      0      0      0         0
%i    0    0    0    0      0      0      0      0         0
/* IAC                                ULTRA-RAPID PREDICTION
/* S/V CLOCKS ARE ALIGNED TO GNSS TIME                      
/* G:C1WC2W R:C1PC2P E:C1XC5X C:C2IC6I J:C1CC2S             
/* PCV:IGS20_2317 OL/AL:FES2004  NONE     YN ORB:CoN CLK:CoN
*  2024 10 18 16 30  0.00000000
PG02 -15415.060928   1453.810357  22076.811952   -334.303117
PG03 -22183.699152  11502.893325   8670.182095    574.147260
PG04 -22706.066943   1495.371811 -13806.954873    463.959278
PG05  17481.230356   2175.697075 -20079.022563   -190.196099
PG06   5074.136985  25997.874696   -749.683510    -47.860563
PG07  -8104.444581  18800.622029 -16136.891425    -26.594093
PG08 -25989.031222  -5935.290712   2645.067591    388.144102
PG09 -14885.250093   9839.110854 -19786.112152    404.277996
PG10   4274.923018 -19268.468392  17820.637295   -163.073397
PG11  12533.694113  18740.971978 -14054.470452   -744.861585
PG12  22703.175491  -7087.394857  11492.872704   -546.016445
PG13  22362.031070  14195.990031  -3510.963191    682.049691
PG14  -8068.172967  20507.406752  14705.349959    520.366571
PG15  26327.475192   2840.043221   2435.500653    217.240618
PG16 -14467.397176  -7845.288730 -21271.273766   -151.552987
PG17   1423.168879  16433.757805  21198.148007    591.069859
PG18   7390.258384 -19927.436431 -15757.942498   -658.374930
PG19  11723.386997  17725.165157  16048.358587    552.064433
PG20   9690.104792  12150.703225 -21476.965030    369.548996
PG21 -16656.521324  -5988.170480  20497.741092     99.487262
PG22  -1104.498052  18026.283922  19977.467626    -72.140476
PG23  15542.858550 -20324.407792   6698.813750    344.380272
PG24  16193.173473    904.780908  20636.431766   -484.331125
PG25  19817.188860 -17447.640298    463.891471    499.478124
PG26  -5012.369172 -16503.938163 -20275.525545     52.564707
PG27 -22121.692421 -13130.397032  -7743.483472    -34.615712
PG28  -4829.796168 -26073.049239   1491.334749   -450.141683
PG29  17045.808754  -7011.887655 -19212.399430   -570.353106
PG31 -11068.605136 -21749.801566 -10243.857771   -223.197791
PG32  -4887.656005 -16613.886822  20410.763352   -585.211826
PR01  -1786.870951 -10820.930467  23023.635223    101.472387
PR02 -18624.092576  -7087.104787  16008.114028    -25.229615
PR03 -25527.856793    866.482901   -236.411040    109.663148
PR04 -18379.499919   7693.035039 -15918.045469    259.858003
PR05  -1507.394829  10685.559297 -23109.279451    139.345760
PR07  25438.635597  -1127.040906    868.933913     93.190657
PR08  18024.907003  -8071.682418  16171.304721     -6.399743
PR09   6579.565436  11223.205587  21945.690552    215.441512
PR11  14640.095176 -18969.845866   8782.254891      9.003483
PR12   6050.888684 -22330.359324 -10705.203280     46.178795
PR14 -14184.518884   5870.431664 -20353.668350     27.106735
PR15 -14389.775223  19834.681475  -7053.552463     74.797486
PR16  -6115.827688  22354.601814  10624.636868     30.042955
PR17 -14439.547791  -5913.300618  20176.956814    131.900798
PR18  -6226.880652   9739.758119  22754.634125    167.500795
PR19   3308.045688  20193.517834  15244.992229   -295.328239
PR20  13997.696770  20625.389371  -5327.933618   -120.701797
PR21  14602.100619   6986.540263 -19719.904642   -143.847640
PR22   5978.151276 -10913.902967 -22236.400399     17.126577
PR24 -15211.578682 -19617.022089   5836.210824    -76.510455
PR25  14355.868951   6017.594624 -20206.800754    -90.528609
PR26  19306.059470  -7611.462917  14858.411452   -539.227685
*  2024 10 18 16 45  0.00000000
PG02 -16121.842974   -833.640006  21618.955962   -334.295621
PG03 -21443.618033  10589.284420  11268.107112    574.157767
PG04 -24007.127790    843.560230 -11479.320623    463.965364
PG05  15913.099209   3879.470303 -21103.467719   -190.197193
PG06   4882.430547  25963.030044   2167.613477    -47.885559
PG07  -8764.257724  16841.006690 -17853.052241    -26.591167
PG08 -26071.900434  -6216.676704   -160.034747    388.154360
PG09 -16939.167808   9137.644206 -18422.730016    404.292927
PG10   5760.297755 -20460.920625  15921.171802   -163.085555
PG11  12606.916113  20229.727298 -11746.506952   -744.864111
PG12  21678.551757  -5983.972627  13812.345893   -546.018848
PG13  21797.583202  14147.744053  -6302.341505    682.051306
PG14  -9399.164367  21360.873015  12510.512261    520.374132
PG15  26455.334899   3175.726418   -358.592085    217.244619
PG16 -12600.961439  -9334.041116 -21819.752667   -151.543956
PG17   -820.554308  15649.809321  21842.449061    591.058080
PG18   7930.658279 -18078.621961 -17631.273675   -658.376032
PG19   9879.900413  17081.615621  17831.383286    552.068617
PG20   8187.430206  14075.859969 -20935.004081    369.548620
PG21 -17282.367848  -8066.958241  19298.961290     99.486515
PG22  -2844.512687  19246.061510  18619.214975    -72.143457
PG23  16119.091883 -20598.948041   3873.995023    344.387622
PG24  16885.324832   3218.051973  19889.938856   -484.329900
PG25  19847.444396 -17049.307317   3302.515637    499.478031
PG26  -3394.575220 -18069.081172 -19206.124408     52.556149
PG27 -21120.654997 -13039.617803 -10319.608888    -34.615878
PG28  -4502.170995 -25813.073981   4323.277645   -450.153167
PG29  18953.405643  -6134.215655 -17671.016063   -570.350704
PG31 -11004.058863 -22788.287210  -7634.806988   -223.197293
PG32  -2630.074701 -16009.685181  21281.800398   -585.207738
PR01   1038.773285 -11084.798025  22944.366564    101.473587
PR02 -16520.524239  -7074.985011  18174.566667    -25.229756
PR03 -25354.140913   1024.067281   2973.267437    109.663817
PR04 -20185.108102   7926.554528 -13426.614341    259.859543
PR05  -4330.661521  10848.550791 -22675.212101    139.346304
PR07  25332.937732  -1281.041930  -2353.319061     93.191368
PR08  19850.758075  -8307.904620  13715.785007     -6.399777
PR09   5516.917192  13634.860522  20836.976856    215.443512
PR11  13972.523224 -17893.805265  11658.597189      9.002722
PR12   6444.447265 -23411.112167  -7770.035017     46.179183
PR14 -13023.569984   3552.032763 -21627.350079     27.106826
PR15 -13816.562825  18939.007609 -10027.327370     74.797253
PR16  -6482.414057  23431.460913   7671.659979     30.043244
PR17 -15827.994844  -7849.466337  18391.095304    131.903881
PR18  -7725.761963   7334.836925  23196.748837    167.502475
PR19   2408.711176  18372.896406  17542.897760   -295.329461
PR20  14417.043827  20915.224360  -2123.067515   -120.702912
PR21  15953.681828   8875.178936 -17825.815646   -143.850493
PR22   7398.006750  -8512.646771 -22848.562715     17.116597
PR24 -15620.758673 -19973.599178   2676.580656    -76.511773
PR25  15655.553230   8022.419988 -18473.995778    -90.524726
PR26  20963.762321  -7858.572045  12253.795917   -539.199197
EOF
